start=new Date('2022-10-28T00:00:00.000Z').valueOf();
sats=[{"SITE":"AFETR","NORAD_CAT_ID":"46550","OBJECT_TYPE":"PAYLOAD","OBJECT_NAME":"STARLINK-1701","RA_OF_ASC_NODE":"293.7593","PERIAPSIS":"545.156","MEAN_ELEMENT_THEORY":"SGP4","APOAPSIS":"549.307","COUNTRY_CODE":"US","INCLINATION":"53.0545","TLE_LINE1":"1 46550U 20070U   22300.70314021  .00002025  00000-0  15485-3 0  9999","RCS_SIZE":"LARGE","SEMIMAJOR_AXIS":"6925.366","EPHEMERIS_TYPE":"0","PERIOD":"95.593","ECCENTRICITY":"0.00029970","REF_FRAME":"TEME","ARG_OF_PERICENTER":"38.1219","CLASSIFICATION_TYPE":"U","ELEMENT_SET_NO":"999","REV_AT_EPOCH":"11426","MEAN_MOTION_DDOT":"0.0000000000000","OBJECT_ID":"2020-070U","TLE_LINE2":"2 46550  53.0545 293.7593 0002997  38.1219 321.9981 15.06394205114265","FILE":"3636022","MEAN_MOTION_DOT":"0.00002025","BSTAR":"0.00015485000000","EPOCH":"2022-10-27T16:52:31.314144","MEAN_ANOMALY":"321.9981","CENTER_NAME":"EARTH","MEAN_MOTION":"15.06394205","GP_ID":"216333509","TIME_SYSTEM":"UTC","LAUNCH_DATE":"2020-10-06","DECAY_DATE":null},{"TIME_SYSTEM":"UTC","GP_ID":"216332257","LAUNCH_DATE":"2020-10-06","DECAY_DATE":null,"MEAN_MOTION":"15.54561406","EPOCH":"2022-10-27T14:55:33.263328","MEAN_ANOMALY":"273.8299","CENTER_NAME":"EARTH","FILE":"3636022","BSTAR":"0.00068712000000","MEAN_MOTION_DOT":"0.00045959","MEAN_MOTION_DDOT":"0.0000000000000","OBJECT_ID":"2020-070W","TLE_LINE2":"2 46552  53.0508 258.1499 0005269  86.3314 273.8299 15.54561406114766","ARG_OF_PERICENTER":"86.3314","ELEMENT_SET_NO":"999","CLASSIFICATION_TYPE":"U","REV_AT_EPOCH":"11476","REF_FRAME":"TEME","ECCENTRICITY":"0.00052690","PERIOD":"92.631","EPHEMERIS_TYPE":"0","SEMIMAJOR_AXIS":"6781.565","TLE_LINE1":"1 46552U 20070W   22300.62191277  .00045959  00000-0  68712-3 0  9992","RCS_SIZE":"LARGE","INCLINATION":"53.0508","COUNTRY_CODE":"US","APOAPSIS":"407.003","OBJECT_NAME":"STARLINK-1649","PERIAPSIS":"399.857","MEAN_ELEMENT_THEORY":"SGP4","RA_OF_ASC_NODE":"258.1499","SITE":"AFETR","NORAD_CAT_ID":"46552","OBJECT_TYPE":"PAYLOAD"},{"SEMIMAJOR_AXIS":"6925.361","RCS_SIZE":"LARGE","TLE_LINE1":"1 46553U 20070X   22300.62480924  .00001464  00000-0  11719-3 0  9991","COUNTRY_CODE":"US","INCLINATION":"53.0557","APOAPSIS":"548.678","RA_OF_ASC_NODE":"264.1261","PERIAPSIS":"545.775","MEAN_ELEMENT_THEORY":"SGP4","OBJECT_NAME":"STARLINK-1664","NORAD_CAT_ID":"46553","SITE":"AFETR","OBJECT_TYPE":"PAYLOAD","LAUNCH_DATE":"2020-10-06","DECAY_DATE":null,"GP_ID":"216333007","TIME_SYSTEM":"UTC","MEAN_MOTION":"15.06395890","CENTER_NAME":"EARTH","MEAN_ANOMALY":"311.8722","EPOCH":"2022-10-27T14:59:43.518336","MEAN_MOTION_DOT":"0.00001464","BSTAR":"0.00011719000000","FILE":"3636022","OBJECT_ID":"2020-070X","TLE_LINE2":"2 46553  53.0557 264.1261 0002096  48.2446 311.8722 15.06395890114676","MEAN_MOTION_DDOT":"0.0000000000000","ELEMENT_SET_NO":"999","CLASSIFICATION_TYPE":"U","REV_AT_EPOCH":"11467","ARG_OF_PERICENTER":"48.2446","PERIOD":"95.592","EPHEMERIS_TYPE":"0","ECCENTRICITY":"0.00020960","REF_FRAME":"TEME"},{"INCLINATION":"53.0550","COUNTRY_CODE":"US","APOAPSIS":"548.734","SEMIMAJOR_AXIS":"6925.354","RCS_SIZE":"LARGE","TLE_LINE1":"1 46554U 20070Y   22300.87590624  .00002345  00000-0  17627-3 0  9991","OBJECT_NAME":"STARLINK-1671","MEAN_ELEMENT_THEORY":"SGP4","PERIAPSIS":"545.703","RA_OF_ASC_NODE":"277.9721","OBJECT_TYPE":"PAYLOAD","SITE":"AFETR","NORAD_CAT_ID":"46554","MEAN_MOTION":"15.06398330","EPOCH":"2022-10-27T21:01:18.299136","MEAN_ANOMALY":"311.1210","CENTER_NAME":"EARTH","TIME_SYSTEM":"UTC","GP_ID":"216311963","LAUNCH_DATE":"2020-10-06","DECAY_DATE":null,"ARG_OF_PERICENTER":"48.9968","CLASSIFICATION_TYPE":"U","ELEMENT_SET_NO":"999","REV_AT_EPOCH":"11451","ECCENTRICITY":"0.00021880","REF_FRAME":"TEME","EPHEMERIS_TYPE":"0","PERIOD":"95.592","FILE":"3635940","BSTAR":"0.00017627000000","MEAN_MOTION_DOT":"0.00002345","MEAN_MOTION_DDOT":"0.0000000000000","TLE_LINE2":"2 46554  53.0550 277.9721 0002188  48.9968 311.1210 15.06398330114511","OBJECT_ID":"2020-070Y"},{"INCLINATION":"53.0535","COUNTRY_CODE":"US","APOAPSIS":"548.804","SEMIMAJOR_AXIS":"6925.329","RCS_SIZE":"LARGE","TLE_LINE1":"1 46556U 20070AA  22300.80264757  .00002912  00000-0  21429-3 0  9996","PERIAPSIS":"545.584","MEAN_ELEMENT_THEORY":"SGP4","RA_OF_ASC_NODE":"293.2983","OBJECT_NAME":"STARLINK-1676","OBJECT_TYPE":"PAYLOAD","SITE":"AFETR","NORAD_CAT_ID":"46556","MEAN_MOTION":"15.06406325","CENTER_NAME":"EARTH","MEAN_ANOMALY":"312.0538","EPOCH":"2022-10-27T19:15:48.750048","LAUNCH_DATE":"2020-10-06","DECAY_DATE":null,"GP_ID":"216334009","TIME_SYSTEM":"UTC","ELEMENT_SET_NO":"999","REV_AT_EPOCH":"11428","CLASSIFICATION_TYPE":"U","ARG_OF_PERICENTER":"48.0649","ECCENTRICITY":"0.00023250","REF_FRAME":"TEME","PERIOD":"95.592","EPHEMERIS_TYPE":"0","BSTAR":"0.00021429000000","MEAN_MOTION_DOT":"0.00002912","FILE":"3636022","OBJECT_ID":"2020-070AA","TLE_LINE2":"2 46556  53.0535 293.2983 0002325  48.0649 312.0538 15.06406325114288","MEAN_MOTION_DDOT":"0.0000000000000"},{"GP_ID":"216332757","TIME_SYSTEM":"UTC","DECAY_DATE":null,"LAUNCH_DATE":"2020-10-06","MEAN_ANOMALY":"316.9333","EPOCH":"2022-10-27T15:32:13.549920","CENTER_NAME":"EARTH","MEAN_MOTION":"15.06401022","MEAN_MOTION_DDOT":"0.0000000000000","OBJECT_ID":"2020-070AB","TLE_LINE2":"2 46557  53.0546 279.0120 0002194  43.1828 316.9333 15.06401022114471","FILE":"3636022","MEAN_MOTION_DOT":"0.00002348","BSTAR":"0.00017649000000","EPHEMERIS_TYPE":"0","PERIOD":"95.592","ECCENTRICITY":"0.00021940","REF_FRAME":"TEME","ARG_OF_PERICENTER":"43.1828","ELEMENT_SET_NO":"999","CLASSIFICATION_TYPE":"U","REV_AT_EPOCH":"11447","TLE_LINE1":"1 46557U 20070AB  22300.64737905  .00002348  00000-0  17649-3 0  9991","RCS_SIZE":"LARGE","SEMIMAJOR_AXIS":"6925.345","APOAPSIS":"548.730","COUNTRY_CODE":"US","INCLINATION":"53.0546","SITE":"AFETR","NORAD_CAT_ID":"46557","OBJECT_TYPE":"PAYLOAD","OBJECT_NAME":"STARLINK-1679","RA_OF_ASC_NODE":"279.0120","MEAN_ELEMENT_THEORY":"SGP4","PERIAPSIS":"545.691"},{"OBJECT_TYPE":"PAYLOAD","SITE":"AFETR","NORAD_CAT_ID":"46558","MEAN_ELEMENT_THEORY":"SGP4","PERIAPSIS":"545.769","RA_OF_ASC_NODE":"278.9777","OBJECT_NAME":"STARLINK-1680","APOAPSIS":"548.654","INCLINATION":"53.0553","COUNTRY_CODE":"US","RCS_SIZE":"LARGE","TLE_LINE1":"1 46558U 20070AC  22300.65474950  .00001792  00000-0  13920-3 0  9991","SEMIMAJOR_AXIS":"6925.347","ECCENTRICITY":"0.00020830","REF_FRAME":"TEME","PERIOD":"95.592","EPHEMERIS_TYPE":"0","ELEMENT_SET_NO":"999","CLASSIFICATION_TYPE":"U","REV_AT_EPOCH":"11444","ARG_OF_PERICENTER":"50.8803","OBJECT_ID":"2020-070AC","TLE_LINE2":"2 46558  53.0553 278.9777 0002083  50.8803 309.2370 15.06400637114445","MEAN_MOTION_DDOT":"0.0000000000000","BSTAR":"0.00013920000000","MEAN_MOTION_DOT":"0.00001792","FILE":"3636022","CENTER_NAME":"EARTH","EPOCH":"2022-10-27T15:42:50.356800","MEAN_ANOMALY":"309.2370","MEAN_MOTION":"15.06400637","LAUNCH_DATE":"2020-10-06","DECAY_DATE":null,"GP_ID":"216332508","TIME_SYSTEM":"UTC"},{"DECAY_DATE":null,"LAUNCH_DATE":"2020-10-06","TIME_SYSTEM":"UTC","GP_ID":"216312013","CENTER_NAME":"EARTH","EPOCH":"2022-10-27T09:02:44.227392","MEAN_ANOMALY":"317.9838","MEAN_MOTION":"15.06401160","TLE_LINE2":"2 46559  53.0531 265.2157 0002247  42.1324 317.9838 15.06401160114646","OBJECT_ID":"2020-070AD","MEAN_MOTION_DDOT":"0.0000000000000","BSTAR":"0.00005789400000","MEAN_MOTION_DOT":"0.00000581","FILE":"3635943","REF_FRAME":"TEME","ECCENTRICITY":"0.00022470","PERIOD":"95.592","EPHEMERIS_TYPE":"0","ELEMENT_SET_NO":"999","REV_AT_EPOCH":"11464","CLASSIFICATION_TYPE":"U","ARG_OF_PERICENTER":"42.1324","RCS_SIZE":"LARGE","TLE_LINE1":"1 46559U 20070AD  22300.37690078  .00000581  00000-0  57894-4 0  9996","SEMIMAJOR_AXIS":"6925.345","APOAPSIS":"548.766","INCLINATION":"53.0531","COUNTRY_CODE":"US","SITE":"AFETR","OBJECT_TYPE":"PAYLOAD","NORAD_CAT_ID":"46559","MEAN_ELEMENT_THEORY":"SGP4","PERIAPSIS":"545.654","RA_OF_ASC_NODE":"265.2157","OBJECT_NAME":"STARLINK-1681"},{"MEAN_MOTION":"15.06412318","CENTER_NAME":"EARTH","EPOCH":"2022-10-27T16:04:04.103616","MEAN_ANOMALY":"315.1875","DECAY_DATE":null,"LAUNCH_DATE":"2020-10-06","GP_ID":"216333510","TIME_SYSTEM":"UTC","ELEMENT_SET_NO":"999","CLASSIFICATION_TYPE":"U","REV_AT_EPOCH":"11447","ARG_OF_PERICENTER":"44.9313","PERIOD":"95.591","EPHEMERIS_TYPE":"0","REF_FRAME":"TEME","ECCENTRICITY":"0.00024690","MEAN_MOTION_DOT":"0.00004841","BSTAR":"0.00034359000000","FILE":"3636022","OBJECT_ID":"2020-070AE","TLE_LINE2":"2 46560  53.0542 278.9108 0002469  44.9313 315.1875 15.06412318114470","MEAN_MOTION_DDOT":"0.0000000000000","COUNTRY_CODE":"US","INCLINATION":"53.0542","APOAPSIS":"548.886","SEMIMAJOR_AXIS":"6925.311","TLE_LINE1":"1 46560U 20070AE  22300.66949194  .00004841  00000-0  34359-3 0  9999","RCS_SIZE":"LARGE","RA_OF_ASC_NODE":"278.9108","MEAN_ELEMENT_THEORY":"SGP4","PERIAPSIS":"545.466","OBJECT_NAME":"STARLINK-1706","NORAD_CAT_ID":"46560","SITE":"AFETR","OBJECT_TYPE":"PAYLOAD"},{"TLE_LINE1":"1 46561U 20070AF  22300.42160090  .00005084  00000-0  35986-3 0  9991","RCS_SIZE":"LARGE","SEMIMAJOR_AXIS":"6925.318","APOAPSIS":"548.969","INCLINATION":"53.0533","COUNTRY_CODE":"US","OBJECT_TYPE":"PAYLOAD","SITE":"AFETR","NORAD_CAT_ID":"46561","PERIAPSIS":"545.398","MEAN_ELEMENT_THEORY":"SGP4","RA_OF_ASC_NODE":"280.0331","OBJECT_NAME":"STARLINK-1709","DECAY_DATE":null,"LAUNCH_DATE":"2020-10-06","GP_ID":"216301017","TIME_SYSTEM":"UTC","CENTER_NAME":"EARTH","MEAN_ANOMALY":"322.1603","EPOCH":"2022-10-27T10:07:06.317760","MEAN_MOTION":"15.06409914","OBJECT_ID":"2020-070AF","TLE_LINE2":"2 46561  53.0533 280.0331 0002578  37.9567 322.1603 15.06409914114438","MEAN_MOTION_DDOT":"0.0000000000000","BSTAR":"0.00035986000000","MEAN_MOTION_DOT":"0.00005084","FILE":"3635758","ECCENTRICITY":"0.00025780","REF_FRAME":"TEME","EPHEMERIS_TYPE":"0","PERIOD":"95.592","CLASSIFICATION_TYPE":"U","REV_AT_EPOCH":"11443","ELEMENT_SET_NO":"999","ARG_OF_PERICENTER":"37.9567"}];
